[
    {
        "Altitude(m)": 605470.7697422653,
        "Argument of Periapsis(deg)": 0.0,
        "Eccentricity": 0.0,
        "Inclination(deg)": 60.0,
        "Latitude(deg)": 27.988140377586724,
        "Longitude(deg)": 12.262885498701369,
        "Mean Anomaly(deg)": -212.7273,
        "RAAN(deg)": 310.0,
        "Satellite Name": "Test1 1373",
        "Satellite Number": 1373,
        "Semi-Major Axis(m)": 6980739.136638005,
        "Time(s)": 0
    },
    {
        "Altitude(m)": 605395.8080945621,
        "Argument of Periapsis(deg)": 0.00010418945913296404,
        "Eccentricity": 0.0,
        "Inclination(deg)": 60.0,
        "Latitude(deg)": 27.47383179026308,
        "Longitude(deg)": 12.616074396244684,
        "Mean Anomaly(deg)": -212.10719385453817,
        "RAAN(deg)": 309.99957995086027,
        "Satellite Name": "Test1 1373",
        "Satellite Number": 1373,
        "Semi-Major Axis(m)": 6980739.136638005,
        "Time(s)": 10
    },
    {
        "Altitude(m)": 605322.649105534,
        "Argument of Periapsis(deg)": 0.0002083789182659281,
        "Eccentricity": 0.0,
        "Inclination(deg)": 60.0,
        "Latitude(deg)": 26.958377402621945,
        "Longitude(deg)": 12.96561508985408,
        "Mean Anomaly(deg)": -211.48708770907632,
        "RAAN(deg)": 309.99915990172053,
        "Satellite Name": "Test1 1373",
        "Satellite Number": 1373,
        "Semi-Major Axis(m)": 6980739.136638005,
        "Time(s)": 20
    },
    {
        "Altitude(m)": 605251.3484495183,
        "Argument of Periapsis(deg)": 0.00031256837739889213,
        "Eccentricity": 0.0,
        "Inclination(deg)": 60.0,
        "Latitude(deg)": 26.4418117171648,
        "Longitude(deg)": 13.311612229125956,
        "Mean Anomaly(deg)": -210.86698156361453,
        "RAAN(deg)": 309.9987398525808,
        "Satellite Name": "Test1 1373",
        "Satellite Number": 1373,
        "Semi-Major Axis(m)": 6980739.136638005,
        "Time(s)": 30
    },
    {
        "Altitude(m)": 605181.9610729002,
        "Argument of Periapsis(deg)": 0.0004167578365318562,
        "Eccentricity": 0.0,
        "Inclination(deg)": 60.0,
        "Latitude(deg)": 25.924168382099023,
        "Longitude(deg)": 13.654168731192696,
        "Mean Anomaly(deg)": -210.24687541815263,
        "RAAN(deg)": 309.99831980344106,
        "Satellite Name": "Test1 1373",
        "Satellite Number": 1373,
        "Semi-Major Axis(m)": 6980739.136638005,
        "Time(s)": 40
    },
    {
        "Altitude(m)": 605114.5411651939,
        "Argument of Periapsis(deg)": 0.0005209472956648203,
        "Eccentricity": 0.0,
        "Inclination(deg)": 60.0,
        "Latitude(deg)": 25.405480223890326,
        "Longitude(deg)": 13.99338483684454,
        "Mean Anomaly(deg)": -209.62676927269078,
        "RAAN(deg)": 309.99789975430133,
        "Satellite Name": "Test1 1373",
        "Satellite Number": 1373,
        "Semi-Major Axis(m)": 6980739.136638005,
        "Time(s)": 50
    },
    {
        "Altitude(m)": 605049.1421303982,
        "Argument of Periapsis(deg)": 0.0006251367547977843,
        "Eccentricity": 0.0,
        "Inclination(deg)": 60.0,
        "Latitude(deg)": 24.88577927870099,
        "Longitude(deg)": 14.329358678726384,
        "Mean Anomaly(deg)": -209.00666312722907,
        "RAAN(deg)": 309.99747970516154,
        "Satellite Name": "Test1 1373",
        "Satellite Number": 1373,
        "Semi-Major Axis(m)": 6980739.136638005,
        "Time(s)": 60
    },
    {
        "Altitude(m)": 604985.8165587351,
        "Argument of Periapsis(deg)": 0.0007293262139307483,
        "Eccentricity": 0.0,
        "Inclination(deg)": 60.0,
        "Latitude(deg)": 24.36509682275125,
        "Longitude(deg)": 14.66218684867718,
        "Mean Anomaly(deg)": -208.38655698176714,
        "RAAN(deg)": 309.99705965602186,
        "Satellite Name": "Test1 1373",
        "Satellite Number": 1373,
        "Semi-Major Axis(m)": 6980739.136638005,
        "Time(s)": 70
    },
    {
        "Altitude(m)": 604924.6161987247,
        "Argument of Periapsis(deg)": 0.0008335156730637124,
        "Eccentricity": 0.0,
        "Inclination(deg)": 60.0,
        "Latitude(deg)": 23.843463401639045,
        "Longitude(deg)": 14.991963451291133,
        "Mean Anomaly(deg)": -207.76645083630538,
        "RAAN(deg)": 309.99663960688207,
        "Satellite Name": "Test1 1373",
        "Satellite Number": 1373,
        "Semi-Major Axis(m)": 6980739.136638005,
        "Time(s)": 80
    },
    {
        "Altitude(m)": 604865.5919296292,
        "Argument of Periapsis(deg)": 0.0009377051321966765,
        "Eccentricity": 0.0,
        "Inclination(deg)": 60.0,
        "Latitude(deg)": 23.320908858660413,
        "Longitude(deg)": 15.318780669406891,
        "Mean Anomaly(deg)": -207.14634469084353,
        "RAAN(deg)": 309.9962195577423,
        "Satellite Name": "Test1 1373",
        "Satellite Number": 1373,
        "Semi-Major Axis(m)": 6980739.136638005,
        "Time(s)": 90
    },
    {
        "Altitude(m)": 604808.7937343013,
        "Argument of Periapsis(deg)": 0.0010418945913296407,
        "Eccentricity": 0.0,
        "Inclination(deg)": 60.0,
        "Latitude(deg)": 22.797462362165486,
        "Longitude(deg)": 15.642729328621641,
        "Mean Anomaly(deg)": -206.5262385453817,
        "RAAN(deg)": 309.99579950860254,
        "Satellite Name": "Test1 1373",
        "Satellite Number": 1373,
        "Semi-Major Axis(m)": 6980739.136638005,
        "Time(s)": 100
    },
    {
        "Altitude(m)": 604754.2706724113,
        "Argument of Periapsis(deg)": 0.0011460840504626045,
        "Eccentricity": 0.0,
        "Inclination(deg)": 60.0,
        "Latitude(deg)": 22.273152431982236,
        "Longitude(deg)": 15.963897947930437,
        "Mean Anomaly(deg)": -205.90613239991987,
        "RAAN(deg)": 309.9953794594628,
        "Satellite Name": "Test1 1373",
        "Satellite Number": 1373,
        "Semi-Major Axis(m)": 6980739.136638005,
        "Time(s)": 110
    },
    {
        "Altitude(m)": 604702.0708540975,
        "Argument of Periapsis(deg)": 0.0012502735095955685,
        "Eccentricity": 0.0,
        "Inclination(deg)": 60.0,
        "Latitude(deg)": 21.748006964949365,
        "Longitude(deg)": 16.282373302222062,
        "Mean Anomaly(deg)": -205.28602625445802,
        "RAAN(deg)": 309.9949594103231,
        "Satellite Name": "Test1 1373",
        "Satellite Number": 1373,
        "Semi-Major Axis(m)": 6980739.136638005,
        "Time(s)": 120
    },
    {
        "Altitude(m)": 604652.2414140587,
        "Argument of Periapsis(deg)": 0.0013544629687285324,
        "Eccentricity": 0.0,
        "Inclination(deg)": 60.0,
        "Latitude(deg)": 21.222053259589206,
        "Longitude(deg)": 16.59824098374515,
        "Mean Anomaly(deg)": -204.66592010899626,
        "RAAN(deg)": 309.99453936118334,
        "Satellite Name": "Test1 1373",
        "Satellite Number": 1373,
        "Semi-Major Axis(m)": 6980739.136638005,
        "Time(s)": 130
    },
    {
        "Altitude(m)": 604604.8284860523,
        "Argument of Periapsis(deg)": 0.0014586524278614966,
        "Eccentricity": 0.0,
        "Inclination(deg)": 60.0,
        "Latitude(deg)": 20.695318039951317,
        "Longitude(deg)": 16.911584449665444,
        "Mean Anomaly(deg)": -204.0458139635344,
        "RAAN(deg)": 309.9941193120436,
        "Satellite Name": "Test1 1373",
        "Satellite Number": 1373,
        "Semi-Major Axis(m)": 6980739.136638005,
        "Time(s)": 140
    },
    {
        "Altitude(m)": 604559.8771779054,
        "Argument of Periapsis(deg)": 0.0015628418869944607,
        "Eccentricity": 0.0,
        "Inclination(deg)": 60.0,
        "Latitude(deg)": 20.167827478665323,
        "Longitude(deg)": 17.22248558145818,
        "Mean Anomaly(deg)": -203.42570781807254,
        "RAAN(deg)": 309.9936992629039,
        "Satellite Name": "Test1 1373",
        "Satellite Number": 1373,
        "Semi-Major Axis(m)": 6980739.136638005,
        "Time(s)": 150
    },
    {
        "Altitude(m)": 604517.4315469433,
        "Argument of Periapsis(deg)": 0.0016670313461274247,
        "Eccentricity": 0.0,
        "Inclination(deg)": 60.0,
        "Latitude(deg)": 19.639607219231046,
        "Longitude(deg)": 17.531025243265997,
        "Mean Anomaly(deg)": -202.80560167261078,
        "RAAN(deg)": 309.99327921376414,
        "Satellite Name": "Test1 1373",
        "Satellite Number": 1373,
        "Semi-Major Axis(m)": 6980739.136638005,
        "Time(s)": 160
    },
    {
        "Altitude(m)": 604477.5345759233,
        "Argument of Periapsis(deg)": 0.0017712208052603888,
        "Eccentricity": 0.0,
        "Inclination(deg)": 60.0,
        "Latitude(deg)": 19.110682397574024,
        "Longitude(deg)": 17.837282326354238,
        "Mean Anomaly(deg)": -202.18549552714893,
        "RAAN(deg)": 309.99285916462435,
        "Satellite Name": "Test1 1373",
        "Satellite Number": 1373,
        "Semi-Major Axis(m)": 6980739.136638005,
        "Time(s)": 170
    },
    {
        "Altitude(m)": 604440.2281494808,
        "Argument of Periapsis(deg)": 0.001875410264393353,
        "Eccentricity": 0.0,
        "Inclination(deg)": 60.0,
        "Latitude(deg)": 18.581077662902825,
        "Longitude(deg)": 18.141334305419583,
        "Mean Anomaly(deg)": -201.56538938168705,
        "RAAN(deg)": 309.9924391154846,
        "Satellite Name": "Test1 1373",
        "Satellite Number": 1373,
        "Semi-Major Axis(m)": 6980739.136638005,
        "Time(s)": 180
    },
    {
        "Altitude(m)": 604405.5530310492,
        "Argument of Periapsis(deg)": 0.0019795997235263173,
        "Eccentricity": 0.0,
        "Inclination(deg)": 60.0,
        "Latitude(deg)": 18.05081719789311,
        "Longitude(deg)": 18.44325779389235,
        "Mean Anomaly(deg)": -200.94528323622527,
        "RAAN(deg)": 309.9920190663449,
        "Satellite Name": "Test1 1373",
        "Satellite Number": 1373,
        "Semi-Major Axis(m)": 6980739.136638005,
        "Time(s)": 190
    }
]